ONEWEB-0027             
1 45432U 20020J   24003.56333862  .00000030  00000+0  44172-4 0  9991
2 45432  87.9199 183.9363 0001754  76.3053 283.8274 13.17646189188419
ONEWEB-0064             
1 45433U 20020K   24003.61377481  .00000377  00000+0  10292-2 0  9991
2 45433  87.8958 199.0541 0001752  85.0112 275.1216 13.11415454185318
ONEWEB-0018             
1 45434U 20020L   24003.56992976 -.00000468  00000+0 -13569-2 0  9991
2 45434  87.8957 199.0566 0001424  92.0107 268.1184 13.11416884185250
ONEWEB-0083             
1 45435U 20020M   24003.55858209 -.00000336  00000+0 -98249-3 0  9994
2 45435  87.8957 199.0384 0001512  84.0650 276.0650 13.11415930185281
ONEWEB-0095             
1 45436U 20020N   24003.62690557 -.00000183  00000+0 -55250-3 0  9998
2 45436  87.8955 199.0639 0001338  72.8013 287.3261 13.11414928185309
ONEWEB-0092             
1 45437U 20020P   24003.59428730  .00000468  00000+0  12840-2 0  9998
2 45437  87.8957 199.0500 0001328  74.4347 285.6928 13.11419931185407
ONEWEB-0085             
1 45438U 20020Q   24003.62837501 -.00000212  00000+0 -63409-3 0  9990
2 45438  87.8959 199.0471 0001607  92.5297 267.6015 13.11414385185306
ONEWEB-0096             
1 45439U 20020R   24003.56019003 -.00000350  00000+0 -10246-2 0  9996
2 45439  87.8957 199.0337 0001443  97.5880 262.5412 13.11415634185276
